ONEWEB-0018             
1 45434U 20020L   24226.50927900 -.00000076  00000+0 -25071-3 0  9994
2 45434  87.8997 154.9877 0001891  76.0158 284.1180 13.11415704214465
ONEWEB-0083             
1 45435U 20020M   24226.34650594  .00000381  00000+0  10406-2 0  9991
2 45435  87.9000 155.0016 0002018  77.9419 282.1934 13.11414720214485
ONEWEB-0095             
1 45436U 20020N   24226.56707119  .00000498  00000+0  13689-2 0  9997
2 45436  87.8996 154.9914 0002807  86.0233 274.1215 13.11414846214511
ONEWEB-0092             
1 45437U 20020P   24226.53384353 -.00000720  00000+0 -20683-2 0  9998
2 45437  87.9002 154.9805 0002319  77.5472 282.5915 13.11417520214622
ONEWEB-0085             
1 45438U 20020Q   24226.56862776  .00000510  00000+0  14021-2 0  9996
2 45438  87.8999 154.9817 0001954  75.2064 284.9280 13.11415628214512
ONEWEB-0096             
1 45439U 20020R   24226.50080379  .00000282  00000+0  75955-3 0  9992
2 45439  87.8996 154.9651 0001899  71.9235 288.2099 13.11414543214494
ONEWEB-0037             
1 45440U 20020S   24226.55846990 -.00000808  00000+0 -23151-2 0  9994
2 45440  87.8994 154.9342 0002099  76.0637 284.0725 13.11425926214538
ONEWEB-0042             
1 45441U 20020T   24226.56679436  .00000548  00000+0  15093-2 0  9990
2 45441  87.8996 154.9656 0002053  75.0743 285.0612 13.11415295214507
